{"type": "FeatureCollection", "features": [ {"type": "Feature", "properties": {"norad_id": 62339, "name": "GPS BIII-7  (PRN 01)", "group": "gps-ops", "lat": 4.606881660617718, "lon": -14.863856049414856, "alt_km": 20152.183508346832, "timestamp": "2025-12-08T21:31:04.926850+00:00", "meta": {"OBJECT_NAME": "GPS BIII-7  (PRN 01)", "OBJECT_ID": "2024-242A", "EPOCH": "2025-12-07T21:14:38.700960", "MEAN_MOTION": 2.00567469, "ECCENTRICITY": 0.00119344, "INCLINATION": 54.9247, "RA_OF_ASC_NODE": 341.9365, "ARG_OF_PERICENTER": 343.8064, "MEAN_ANOMALY": 11.4848, "EPHEMERIS_TYPE": 0, "CLASSIFICATION_TYPE": "U", "NORAD_CAT_ID": 62339, "ELEMENT_SET_NO": 999, "REV_AT_EPOCH": 741, "BSTAR": 0, "MEAN_MOTION_DOT": -8.7e-07, "MEAN_MOTION_DDOT": 0}, "tle": {"line1": "1 62339U 24242A   25341.88517015 -.00000087  00000+0  00000+0 0  9991", "line2": "2 62339  54.9247 341.9365 0011934 343.8064  11.4848  2.00567469  7410"}}, "geometry": {"type": "Point", "coordinates": [-14.863856049414856, 4.606881660617718]}}, {"type": "Feature", "properties": {"norad_id": 64202, "name": "GPS BIII-8  (PRN 21)", "group": "gps-ops", "lat": -12.385107989009304, "lon": -132.37753569673322, "alt_km": 20189.764255648184, "timestamp": "2025-12-08T21:31:04.926862+00:00", "meta": {"OBJECT_NAME": "GPS BIII-8  (PRN 21)", "OBJECT_ID": "2025-116A", "EPOCH": "2025-12-08T05:53:38.601888", "MEAN_MOTION": 2.0055836, "ECCENTRICITY": 0.00052097, "INCLINATION": 55.1026, "RA_OF_ASC_NODE": 38.8223, "ARG_OF_PERICENTER": 307.4427, "MEAN_ANOMALY": 137.7304, "EPHEMERIS_TYPE": 0, "CLASSIFICATION_TYPE": "U", "NORAD_CAT_ID": 64202, "ELEMENT_SET_NO": 999, "REV_AT_EPOCH": 404, "BSTAR": 0, "MEAN_MOTION_DOT": -7.9e-07, "MEAN_MOTION_DDOT": 0}, "tle": {"line1": "1 64202U 25116A   25342.24558567 -.00000079  00000+0  00000+0 0  9992", "line2": "2 64202  55.1026  38.8223 0005209 307.4427 137.7304  2.00558360  4046"}}, "geometry": {"type": "Point", "coordinates": [-132.37753569673322, -12.385107989009304]}}]}